LEMUR-1                 
1 40044U 14033AL  26157.17768813  .00003039  00000+0  35312-3 0  9996
2 40044  97.7870 307.2289 0049662 113.7715 246.8719 14.85202000643838
LEMUR-2-GREENBERG       
1 42837U 17042N   26157.76145779  .00021976  00000+0  73389-3 0  9992
2 42837  97.3820 338.4373 0009537  49.6541 310.5531 15.31006101486799
LEMUR-2-ANDIS           
1 42838U 17042P   26157.74910750  .00027382  00000+0  82057-3 0  9999
2 42838  97.3683 338.5736 0009057  49.2245 310.9782 15.34429480486856
LEMUR-2-MONSON          
1 42839U 17042Q   26157.74776541  .00018878  00000+0  69789-3 0  9995
2 42839  97.4081 338.4115 0007211  41.8321 318.3469 15.27735616486579
LEMUR-2-FURIAUS         
1 42840U 17042R   26157.48621575  .00022921  00000+0  79208-3 0  9995
2 42840  97.3773 336.1433 0008580 101.7128 258.5076 15.29895628486578
LEMUR-2-PETERG          
1 42841U 17042S   26157.79201035  .00030296  00000+0  93590-3 0  9999
2 42841  97.3994 342.8093 0004047  34.6799 325.4706 15.33476494486847
LEMUR-2-DEMBITZ         
1 42842U 17042T   26157.76810501  .00020042  00000+0  69155-3 0  9999
2 42842  97.3830 339.4384 0007598  62.1120 298.0890 15.29979945486753
LEMUR-2-ZACHARY         
1 42845U 17042W   26157.79492329  .00057154  00000+0  10383-2 0  9991
2 42845  97.3614 349.2173 0003638  69.0417 291.1223 15.49365501487593
LEMUR-2-AMANDA-SVANTE   
1 48269U 21034B   26157.20282005  .00045111  00000+0  13832-2 0  9999
2 48269  97.5756 235.2043 0000962 256.4279 103.6856 15.33631703279370
LEMUR-2-SPECIAL-K       
1 48273U 21034F   26157.20130287  .00181204  00000+0  20818-2 0  9994
2 48273  97.5648 243.2905 0002900 237.9387 122.1588 15.61432707279977
LEMUR-2-EMBRIONOVIS     
1 56970U 23084AQ  26157.65780294  .00017097  00000+0  46939-3 0  9993
2 56970  97.6284 301.4560 0008486   0.8273 359.2983 15.37286055166060
LEMUR-2-DEVERILL-M-T    
1 57391U 23100F   26157.83548852  .00030563  00000+0  78525-3 0  9991
2 57391  99.4478 193.6094 0007231  82.0922 278.1137 15.39239120159656
LEMUR-2-BASS            
1 58259U 23174D   26157.50927294  .00022393  00000+0  51335-3 0  9993
2 58259  97.3842 242.0758 0006865 197.3775 162.7239 15.42738531143711
LEMUR-2-JK0903EM1407    
1 58336U 23174CJ  26157.50127039  .00033010  00000+0  56572-3 0  9994
2 58336  97.3908 247.6769 0005904 148.9054 211.2548 15.51130968144071
LEMUR-2-MJR092620       
1 58340U 23174CN  26157.46996834  .00025426  00000+0  54936-3 0  9995
2 58340  97.3972 247.3058 0006885 149.0489 211.1166 15.44477692143993
LEMUR-2-NIMBUS2000      
1 58899U 24022A   26157.55129632  .00022056  00000+0  55945-3 0  9998
2 58899  97.4120   7.4213 0009867 148.8808 211.3024 15.39653520130633
LEMUR-2-VALHALLA        
1 58900U 24022B   26157.54533959  .00021046  00000+0  53926-3 0  9996
2 58900  97.4118   7.4115 0010463 145.2046 214.9886 15.39347702130630
LEMUR-2-OBA-NI-JESU     
1 58902U 24022D   26157.58060698  .01047681  61014-3  14770-2 0  9990
2 58902  97.3743  21.9399 0004708 187.2405 172.8809 16.05868200131622
LEMUR-2-CAEL            
1 58903U 24022E   26157.82387815  .00021938  00000+0  53896-3 0  9994
2 58903  97.4102   8.6111 0009098 128.2415 231.9652 15.40635313130740
LEMUR-2-JOHNNYTRUONG    
1 59146U 24043BA  26156.66841526  .00039077  00000+0  49113-3 0  9992
2 59146  97.5379 307.6665 0004372 211.8335 148.2658 15.59585052126243
LEMUR-2-TOMATOKECHUP    
1 60471U 24149D   26157.48792660  .00013894  00000+0  40088-3 0  9998
2 60471  97.3796 239.5103 0000407 213.3848 146.7370 15.35807320100524
LEMUR-2-STELLA          
1 60533U 24149BT  26157.49095815  .00015863  00000+0  93724-3 0  9999
2 60533  97.6731 239.9014 0002012  99.4545 260.6912 15.11579016 98886
LEMUR-2-MARHISYAM       
1 60536U 24149BW  26157.20254433  .00015006  00000+0  90038-3 0  9998
2 60536  97.6874 240.0497 0003094 137.6306 222.5163 15.11031638 98828
LEMUR-2-AHMED-ASRAR     
1 60576U 24149DN  26157.51179319  .00016650  00000+0  95949-3 0  9997
2 60576  97.6998 242.4119 0002654  65.6702 294.4806 15.12470260 98952
LEMUR-2-LLOYD           
1 60577U 24149DP  26157.16827867  .00015599  00000+0  98846-3 0  9997
2 60577  97.6743 238.2933 0004238 169.1953 190.9367 15.09025439 98734
LEMUR-2-SQUIRRELCOMM    
1 60578U 24149DQ  26157.16753246  .00009292  00000+0  62360-3 0  9992
2 60578  97.6706 238.1137 0006815  92.5608 267.6399 15.07028342 98740
LEMUR-2-SIERRINI        
1 60579U 24149DR  26157.48870825  .00015024  00000+0  90906-3 0  9998
2 60579  97.6841 240.0359 0004868 196.4771 163.6301 15.10721259 98840
LEMUR-2-WILSON          
1 62694U 25009CP  26157.18626202  .00002584  00000+0  24074-3 0  9999
2 62694  97.7028 235.8446 0004826  80.8883 279.2883 14.95122096 75717
LEMUR-2-STAR-FOX        
1 62696U 25009CR  26157.50327665  .00011065  00000+0  84057-3 0  9999
2 62696  97.6941 239.1902 0002700 141.1756 218.9664 15.02340714 75956
LEMUR-2-ARIANNA         
1 62699U 25009CU  26157.50147981  .00011523  00000+0  87546-3 0  9998
2 62699  97.6878 238.9711 0003024 147.7834 212.3576 15.02323221 75956
